OBJECT B                
1 51825U 22019B   25021.92217176  .00028176  00000+0  89260-3 0  9991
2 51825  97.4038  97.8296 0011700 180.6191 179.5039 15.32629118160605
